[{"OBJECT_NAME":"ROBUSTA-3A (MEDITERRANEE)","OBJECT_ID":"2024-128J","EPOCH":"2026-03-09T17:32:19.735008","MEAN_MOTION":15.10076246,"ECCENTRICITY":0.0051919,"INCLINATION":61.9866,"RA_OF_ASC_NODE":199.5396,"ARG_OF_PERICENTER":108.1058,"MEAN_ANOMALY":252.5701,"EPHEMERIS_TYPE":0,"CLASSIFICATION_TYPE":"U","NORAD_CAT_ID":60243,"ELEMENT_SET_NO":999,"REV_AT_EPOCH":9139,"BSTAR":0.00068950735,"MEAN_MOTION_DOT":0.00011442,"MEAN_MOTION_DDOT":0},{"OBJECT_NAME":"STARLINK-35896","OBJECT_ID":"2025-280D","EPOCH":"2026-03-09T21:21:08.123904","MEAN_MOTION":14.98331242,"ECCENTRICITY":0.00027046,"INCLINATION":70.0024,"RA_OF_ASC_NODE":334.0424,"ARG_OF_PERICENTER":274.2001,"MEAN_ANOMALY":85.8848,"EPHEMERIS_TYPE":0,"CLASSIFICATION_TYPE":"U","NORAD_CAT_ID":66824,"ELEMENT_SET_NO":999,"REV_AT_EPOCH":1610,"BSTAR":0.00032907249,"MEAN_MOTION_DOT":3.836e-5,"MEAN_MOTION_DDOT":0}]
